{
  "norad_id": 65760,
  "name": "STARLINK-34890",
  "history": [
    {
      "epoch": "2026-03-28T20:26:37.051872Z",
      "apogee_km": 475.9356162238364,
      "perigee_km": 474.4170590544827,
      "latitude_deg": -6.548915240709246e-06,
      "longitude_deg": 110.51628654618476,
      "height_km": 476.00433015665527,
      "semi_major_axis_km": 6853.31333763916,
      "eccentricity": 0.00011079,
      "inclination_deg": 53.1568,
      "raan_deg": 243.437,
      "arg_perigee_deg": 84.7123,
      "mean_anomaly_deg": 275.4004,
      "mean_motion_rev_day": 15.30212972
    }
  ]
}